{
  "type": "FeatureCollection",
  "features": [
    {
      "type": "Feature",
      "properties": {
        "norad_id": 67066,
        "name": "HULIANWANG DIGUI-126",
        "group": "last-30-days",
        "lat": 39.45020482875501,
        "lon": 117.1953746575961,
        "alt_km": 806.6308927182372,
        "timestamp": "2025-12-20T03:42:46.123597+00:00",
        "meta_object_name": "HULIANWANG DIGUI-126",
        "meta_object_id": "2025-295H",
        "meta_epoch": "2025-12-19T18:43:29.093376",
        "meta_mean_motion": 14.26096808,
        "meta_eccentricity": 0.0011439,
        "meta_inclination": 50.0014,
        "meta_ra_of_asc_node": 342.4785,
        "meta_arg_of_pericenter": 275.0106,
        "meta_mean_anomaly": 84.9502,
        "meta_ephemeris_type": 0,
        "meta_classification_type": "U",
        "meta_norad_cat_id": 67066,
        "meta_element_set_no": 999,
        "meta_rev_at_epoch": 112,
        "meta_bstar": 0.00010653,
        "meta_mean_motion_dot": 9.6e-07,
        "meta_mean_motion_ddot": 0,
        "tle_line1": "1 67066U 25295H   25353.78019784  .00000096  00000+0  10653-3 0  9992",
        "tle_line2": "2 67066  50.0014 342.4785 0011439 275.0106  84.9502 14.26096808  1125"
      },
      "geometry": {
        "type": "Point",
        "coordinates": [
          117.1953746575961,
          39.45020482875501
        ]
      }
    },
    {
      "type": "Feature",
      "properties": {
        "norad_id": 67067,
        "name": "HULIANWANG DIGUI-127",
        "group": "last-30-days",
        "lat": 37.138641220542134,
        "lon": 121.41738154773783,
        "alt_km": 806.1037252411979,
        "timestamp": "2025-12-20T03:42:46.123622+00:00",
        "meta_object_name": "HULIANWANG DIGUI-127",
        "meta_object_id": "2025-295J",
        "meta_epoch": "2025-12-19T18:42:24.914592",
        "meta_mean_motion": 14.26251183,
        "meta_eccentricity": 0.0010875,
        "meta_inclination": 50.0053,
        "meta_ra_of_asc_node": 342.4819,
        "meta_arg_of_pericenter": 278.901,
        "meta_mean_anomaly": 81.0673,
        "meta_ephemeris_type": 0,
        "meta_classification_type": "U",
        "meta_norad_cat_id": 67067,
        "meta_element_set_no": 999,
        "meta_rev_at_epoch": 112,
        "meta_bstar": -0.00026867,
        "meta_mean_motion_dot": -8.09e-06,
        "meta_mean_motion_ddot": 0,
        "tle_line1": "1 67067U 25295J   25353.77945503 -.00000809  00000+0 -26867-3 0  9997",
        "tle_line2": "2 67067  50.0053 342.4819 0010875 278.9010  81.0673 14.26251183  1122"
      },
      "geometry": {
        "type": "Point",
        "coordinates": [
          121.41738154773783,
          37.138641220542134
        ]
      }
    },
    {
      "type": "Feature",
      "properties": {
        "norad_id": 67068,
        "name": "CZ-12 R/B",
        "group": "last-30-days",
        "lat": -18.232909411105496,
        "lon": 176.16127326824807,
        "alt_km": 726.8718423521868,
        "timestamp": "2025-12-20T03:42:46.123633+00:00",
        "meta_object_name": "CZ-12 R/B",
        "meta_object_id": "2025-295K",
        "meta_epoch": "2025-12-19T11:47:42.665856",
        "meta_mean_motion": 14.41129033,
        "meta_eccentricity": 0.0056889,
        "meta_inclination": 49.9945,
        "meta_ra_of_asc_node": 342.9744,
        "meta_arg_of_pericenter": 160.1053,
        "meta_mean_anomaly": 200.2102,
        "meta_ephemeris_type": 0,
        "meta_classification_type": "U",
        "meta_norad_cat_id": 67068,
        "meta_element_set_no": 999,
        "meta_rev_at_epoch": 108,
        "meta_bstar": 1.5271e-05,
        "meta_mean_motion_dot": -1.18e-06,
        "meta_mean_motion_ddot": 0,
        "tle_line1": "1 67068U 25295K   25353.49146604 -.00000118  00000+0  15271-4 0  9992",
        "tle_line2": "2 67068  49.9945 342.9744 0056889 160.1053 200.2102 14.41129033  1088"
      },
      "geometry": {
        "type": "Point",
        "coordinates": [
          176.16127326824807,
          -18.232909411105496
        ]
      }
    },
    {
      "type": "Feature",
      "properties": {
        "norad_id": 67069,
        "name": "XIWANG-5 02",
        "group": "last-30-days",
        "lat": 37.36080110282373,
        "lon": 119.50766808838023,
        "alt_km": 499.55283157192207,
        "timestamp": "2025-12-20T03:42:46.123646+00:00",
        "meta_object_name": "XIWANG-5 02",
        "meta_object_id": "2025-296A",
        "meta_epoch": "2025-12-19T16:21:31.212000",
        "meta_mean_motion": 15.16806567,
        "meta_eccentricity": 0.0014495,
        "meta_inclination": 41.3526,
        "meta_ra_of_asc_node": 61.975,
        "meta_arg_of_pericenter": 74.5676,
        "meta_mean_anomaly": 285.6746,
        "meta_ephemeris_type": 0,
        "meta_classification_type": "U",
        "meta_norad_cat_id": 67069,
        "meta_element_set_no": 999,
        "meta_rev_at_epoch": 101,
        "meta_bstar": 0.00043858,
        "meta_mean_motion_dot": 8.613e-05,
        "meta_mean_motion_ddot": 0,
        "tle_line1": "1 67069U 25296A   25353.68161125  .00008613  00000+0  43858-3 0  9998",
        "tle_line2": "2 67069  41.3526  61.9750 0014495  74.5676 285.6746 15.16806567  1012"
      },
      "geometry": {
        "type": "Point",
        "coordinates": [
          119.50766808838023,
          37.36080110282373
        ]
      }
    },
    {
      "type": "Feature",
      "properties": {
        "norad_id": 67070,
        "name": "DEAR-5",
        "group": "last-30-days",
        "lat": 38.658976535860965,
        "lon": 124.69773025380904,
        "alt_km": 497.99807137837615,
        "timestamp": "2025-12-20T03:42:46.123656+00:00",
        "meta_object_name": "DEAR-5",
        "meta_object_id": "2025-296B",
        "meta_epoch": "2025-12-19T16:20:25.579104",
        "meta_mean_motion": 15.16874808,
        "meta_eccentricity": 0.0016066,
        "meta_inclination": 41.3553,
        "meta_ra_of_asc_node": 61.9711,
        "meta_arg_of_pericenter": 75.9678,
        "meta_mean_anomaly": 284.2929,
        "meta_ephemeris_type": 0,
        "meta_classification_type": "U",
        "meta_norad_cat_id": 67070,
        "meta_element_set_no": 999,
        "meta_rev_at_epoch": 100,
        "meta_bstar": 0.00023707,
        "meta_mean_motion_dot": 4.569e-05,
        "meta_mean_motion_ddot": 0,
        "tle_line1": "1 67070U 25296B   25353.68085161  .00004569  00000+0  23707-3 0  9992",
        "tle_line2": "2 67070  41.3553  61.9711 0016066  75.9678 284.2929 15.16874808  1004"
      },
      "geometry": {
        "type": "Point",
        "coordinates": [
          124.69773025380904,
          38.658976535860965
        ]
      }
    },
    {
      "type": "Feature",
      "properties": {
        "norad_id": 67071,
        "name": "KZ-11 R/B",
        "group": "last-30-days",
        "lat": -41.10504516214214,
        "lon": -21.399396944682383,
        "alt_km": 529.4210221488574,
        "timestamp": "2025-12-20T03:42:46.123666+00:00",
        "meta_object_name": "KZ-11 R/B",
        "meta_object_id": "2025-296C",
        "meta_epoch": "2025-12-19T13:41:34.586880",
        "meta_mean_motion": 14.9799091,
        "meta_eccentricity": 0.0633659,
        "meta_inclination": 41.3275,
        "meta_ra_of_asc_node": 65.0444,
        "meta_arg_of_pericenter": 1.3602,
        "meta_mean_anomaly": 358.8773,
        "meta_ephemeris_type": 0,
        "meta_classification_type": "U",
        "meta_norad_cat_id": 67071,
        "meta_element_set_no": 999,
        "meta_rev_at_epoch": 96,
        "meta_bstar": 0.00052382,
        "meta_mean_motion_dot": 0.06216299,
        "meta_mean_motion_ddot": 6.2939e-06,
        "tle_line1": "1 67071U 25296C   25353.57053920  .06216299  62939-5  52382-3 0  9996",
        "tle_line2": "2 67071  41.3275  65.0444 0633659   1.3602 358.8773 14.97990910   967"
      },
      "geometry": {
        "type": "Point",
        "coordinates": [
          -21.399396944682383,
          -41.10504516214214
        ]
      }
    },
    {
      "type": "Feature",
      "properties": {
        "norad_id": 67072,
        "name": "ELECTRON R/B",
        "group": "last-30-days",
        "lat": -57.094186756537184,
        "lon": -49.5256712876797,
        "alt_km": 196.3702011471687,
        "timestamp": "2025-12-20T03:42:46.123678+00:00",
        "meta_object_name": "ELECTRON R/B",
        "meta_object_id": "2025-297A",
        "meta_epoch": "2025-12-19T20:41:07.885248",
        "meta_mean_motion": 15.91806217,
        "meta_eccentricity": 0.018773,
        "meta_inclination": 97.4699,
        "meta_ra_of_asc_node": 141.8507,
        "meta_arg_of_pericenter": 206.896,
        "meta_mean_anomaly": 152.2489,
        "meta_ephemeris_type": 0,
        "meta_classification_type": "U",
        "meta_norad_cat_id": 67072,
        "meta_element_set_no": 999,
        "meta_rev_at_epoch": 91,
        "meta_bstar": 0.0013023,
        "meta_mean_motion_dot": 0.02499374,
        "meta_mean_motion_ddot": 2.2183e-06,
        "tle_line1": "1 67072U 25297A   25353.86189682  .02499374  22183-5  13023-2 0  9993",
        "tle_line2": "2 67072  97.4699 141.8507 0187730 206.8960 152.2489 15.91806217   912"
      },
      "geometry": {
        "type": "Point",
        "coordinates": [
          -49.5256712876797,
          -57.094186756537184
        ]
      }
    }
  ]
}